[{"OBJECT_NAME":"ONEWEB-0294","OBJECT_ID":"2021-075J","EPOCH":"2025-11-10T16:20:59.451360","MEAN_MOTION":13.12441819,"ECCENTRICITY":0.00020421,"INCLINATION":87.8976,"RA_OF_ASC_NODE":34.0626,"ARG_OF_PERICENTER":89.611,"MEAN_ANOMALY":270.5253,"EPHEMERIS_TYPE":0,"CLASSIFICATION_TYPE":"U","NORAD_CAT_ID":49083,"ELEMENT_SET_NO":999,"REV_AT_EPOCH":20591,"BSTAR":0.0011611336,"MEAN_MOTION_DOT":4.3e-6,"MEAN_MOTION_DDOT":0},{"OBJECT_NAME":"ONEWEB-0295","OBJECT_ID":"2021-075K","EPOCH":"2025-11-10T17:15:55.284768","MEAN_MOTION":13.17649762,"ECCENTRICITY":0.00015016,"INCLINATION":87.9128,"RA_OF_ASC_NODE":49.3192,"ARG_OF_PERICENTER":90.3229,"MEAN_ANOMALY":269.8075,"EPHEMERIS_TYPE":0,"CLASSIFICATION_TYPE":"U","NORAD_CAT_ID":49084,"ELEMENT_SET_NO":999,"REV_AT_EPOCH":20482,"BSTAR":0.00031053754,"MEAN_MOTION_DOT":1.33e-6,"MEAN_MOTION_DDOT":0},{"OBJECT_NAME":"ONEWEB-0296","OBJECT_ID":"2021-075L","EPOCH":"2025-11-10T15:52:58.390752","MEAN_MOTION":13.12444346,"ECCENTRICITY":0.00016581,"INCLINATION":87.8971,"RA_OF_ASC_NODE":34.0713,"ARG_OF_PERICENTER":83.7006,"MEAN_ANOMALY":276.4312,"EPHEMERIS_TYPE":0,"CLASSIFICATION_TYPE":"U","NORAD_CAT_ID":49085,"ELEMENT_SET_NO":999,"REV_AT_EPOCH":20591,"BSTAR":0.00048663927,"MEAN_MOTION_DOT":1.88e-6,"MEAN_MOTION_DDOT":0},{"OBJECT_NAME":"ONEWEB-0297","OBJECT_ID":"2021-075M","EPOCH":"2025-11-10T11:07:59.202624","MEAN_MOTION":13.12440721,"ECCENTRICITY":0.00016937,"INCLINATION":87.8964,"RA_OF_ASC_NODE":34.1447,"ARG_OF_PERICENTER":101.3688,"MEAN_ANOMALY":258.7631,"EPHEMERIS_TYPE":0,"CLASSIFICATION_TYPE":"U","NORAD_CAT_ID":49086,"ELEMENT_SET_NO":999,"REV_AT_EPOCH":20649,"BSTAR":0.00045910123,"MEAN_MOTION_DOT":1.78e-6,"MEAN_MOTION_DDOT":0},{"OBJECT_NAME":"ONEWEB-0298","OBJECT_ID":"2021-075N","EPOCH":"2025-11-10T13:43:28.958880","MEAN_MOTION":13.17651718,"ECCENTRICITY":0.00016693,"INCLINATION":87.9133,"RA_OF_ASC_NODE":49.3451,"ARG_OF_PERICENTER":103.9822,"MEAN_ANOMALY":256.1495,"EPHEMERIS_TYPE":0,"CLASSIFICATION_TYPE":"U","NORAD_CAT_ID":49087,"ELEMENT_SET_NO":999,"REV_AT_EPOCH":20483,"BSTAR":0.00015777803,"MEAN_MOTION_DOT":7.4e-7,"MEAN_MOTION_DDOT":0},{"OBJECT_NAME":"ONEWEB-0299","OBJECT_ID":"2021-075P","EPOCH":"2025-11-10T11:56:22.653024","MEAN_MOTION":13.17650907,"ECCENTRICITY":0.0001532,"INCLINATION":87.914,"RA_OF_ASC_NODE":49.3187,"ARG_OF_PERICENTER":100.7808,"MEAN_ANOMALY":259.3496,"EPHEMERIS_TYPE":0,"CLASSIFICATION_TYPE":"U","NORAD_CAT_ID":49088,"ELEMENT_SET_NO":999,"REV_AT_EPOCH":20480,"BSTAR":9.4561469e-5,"MEAN_MOTION_DOT":5.0e-7,"MEAN_MOTION_DDOT":0},{"OBJECT_NAME":"ONEWEB-0300","OBJECT_ID":"2021-075Q","EPOCH":"2025-11-10T05:26:58.359840","MEAN_MOTION":13.12440915,"ECCENTRICITY":0.00017221,"INCLINATION":87.8976,"RA_OF_ASC_NODE":34.149,"ARG_OF_PERICENTER":112.4536,"MEAN_ANOMALY":247.6775,"EPHEMERIS_TYPE":0,"CLASSIFICATION_TYPE":"U","NORAD_CAT_ID":49089,"ELEMENT_SET_NO":999,"REV_AT_EPOCH":20648,"BSTAR":0.00076130554,"MEAN_MOTION_DOT":2.87e-6,"MEAN_MOTION_DDOT":0},{"OBJECT_NAME":"ONEWEB-0301","OBJECT_ID":"2021-075R","EPOCH":"2025-11-10T12:22:44.017536","MEAN_MOTION":13.12446221,"ECCENTRICITY":0.0001827,"INCLINATION":87.897,"RA_OF_ASC_NODE":34.0945,"ARG_OF_PERICENTER":114.8193,"MEAN_ANOMALY":245.3126,"EPHEMERIS_TYPE":0,"CLASSIFICATION_TYPE":"U","NORAD_CAT_ID":49090,"ELEMENT_SET_NO":999,"REV_AT_EPOCH":20588,"BSTAR":0.0011913753,"MEAN_MOTION_DOT":4.41e-6,"MEAN_MOTION_DDOT":0},{"OBJECT_NAME":"ONEWEB-0302","OBJECT_ID":"2021-075S","EPOCH":"2025-11-10T12:04:02.927424","MEAN_MOTION":13.12444224,"ECCENTRICITY":0.00019073,"INCLINATION":87.8969,"RA_OF_ASC_NODE":34.1042,"ARG_OF_PERICENTER":89.8104,"MEAN_ANOMALY":270.3243,"EPHEMERIS_TYPE":0,"CLASSIFICATION_TYPE":"U","NORAD_CAT_ID":49091,"ELEMENT_SET_NO":999,"REV_AT_EPOCH":20586,"BSTAR":0.00027821262,"MEAN_MOTION_DOT":1.13e-6,"MEAN_MOTION_DDOT":0},{"OBJECT_NAME":"ONEWEB-0304","OBJECT_ID":"2021-075T","EPOCH":"2025-11-10T13:09:16.456032","MEAN_MOTION":13.17651203,"ECCENTRICITY":0.0001599,"INCLINATION":87.9137,"RA_OF_ASC_NODE":49.3393,"ARG_OF_PERICENTER":98.0188,"MEAN_ANOMALY":262.1125,"EPHEMERIS_TYPE":0,"CLASSIFICATION_TYPE":"U","NORAD_CAT_ID":49092,"ELEMENT_SET_NO":999,"REV_AT_EPOCH":20478,"BSTAR":0.0002257226,"MEAN_MOTION_DOT":1.01e-6,"MEAN_MOTION_DDOT":0},{"OBJECT_NAME":"ONEWEB-0305","OBJECT_ID":"2021-075U","EPOCH":"2025-11-10T16:38:14.246016","MEAN_MOTION":13.17651727,"ECCENTRICITY":0.00014044,"INCLINATION":87.9137,"RA_OF_ASC_NODE":49.2873,"ARG_OF_PERICENTER":93.2489,"MEAN_ANOMALY":266.8803,"EPHEMERIS_TYPE":0,"CLASSIFICATION_TYPE":"U","NORAD_CAT_ID":49093,"ELEMENT_SET_NO":999,"REV_AT_EPOCH":20483,"BSTAR":2.1412705e-5,"MEAN_MOTION_DOT":2.1e-7,"MEAN_MOTION_DDOT":0},{"OBJECT_NAME":"ONEWEB-0308","OBJECT_ID":"2021-075V","EPOCH":"2025-11-10T15:34:16.292352","MEAN_MOTION":13.12442923,"ECCENTRICITY":0.00017901,"INCLINATION":87.8972,"RA_OF_ASC_NODE":34.0683,"ARG_OF_PERICENTER":101.666,"MEAN_ANOMALY":258.4669,"EPHEMERIS_TYPE":0,"CLASSIFICATION_TYPE":"U","NORAD_CAT_ID":49094,"ELEMENT_SET_NO":999,"REV_AT_EPOCH":20589,"BSTAR":-0.00050059816,"MEAN_MOTION_DOT":-1.67e-6,"MEAN_MOTION_DDOT":0},{"OBJECT_NAME":"ONEWEB-0309","OBJECT_ID":"2021-075W","EPOCH":"2025-11-10T13:04:25.339872","MEAN_MOTION":13.17650488,"ECCENTRICITY":0.00019578,"INCLINATION":87.9134,"RA_OF_ASC_NODE":49.333,"ARG_OF_PERICENTER":89.5258,"MEAN_ANOMALY":270.6098,"EPHEMERIS_TYPE":0,"CLASSIFICATION_TYPE":"U","NORAD_CAT_ID":49095,"ELEMENT_SET_NO":999,"REV_AT_EPOCH":20478,"BSTAR":4.085154e-6,"MEAN_MOTION_DOT":1.4e-7,"MEAN_MOTION_DDOT":0},{"OBJECT_NAME":"ONEWEB-0310","OBJECT_ID":"2021-075X","EPOCH":"2025-11-10T06:46:23.400192","MEAN_MOTION":13.12445183,"ECCENTRICITY":0.00019316,"INCLINATION":87.8962,"RA_OF_ASC_NODE":34.1809,"ARG_OF_PERICENTER":99.0948,"MEAN_ANOMALY":261.04,"EPHEMERIS_TYPE":0,"CLASSIFICATION_TYPE":"U","NORAD_CAT_ID":49096,"ELEMENT_SET_NO":999,"REV_AT_EPOCH":20647,"BSTAR":0.00088363516,"MEAN_MOTION_DOT":3.31e-6,"MEAN_MOTION_DDOT":0},{"OBJECT_NAME":"ONEWEB-0311","OBJECT_ID":"2021-075Y","EPOCH":"2025-11-10T16:52:49.336320","MEAN_MOTION":13.17648479,"ECCENTRICITY":0.00013495,"INCLINATION":87.9133,"RA_OF_ASC_NODE":49.2979,"ARG_OF_PERICENTER":99.908,"MEAN_ANOMALY":260.2203,"EPHEMERIS_TYPE":0,"CLASSIFICATION_TYPE":"U","NORAD_CAT_ID":49097,"ELEMENT_SET_NO":999,"REV_AT_EPOCH":20485,"BSTAR":0.00025564229,"MEAN_MOTION_DOT":1.12e-6,"MEAN_MOTION_DDOT":0},{"OBJECT_NAME":"ONEWEB-0312","OBJECT_ID":"2021-075Z","EPOCH":"2025-11-10T17:14:41.755776","MEAN_MOTION":13.17651313,"ECCENTRICITY":0.00015906,"INCLINATION":87.9128,"RA_OF_ASC_NODE":49.3233,"ARG_OF_PERICENTER":90.4255,"MEAN_ANOMALY":269.7058,"EPHEMERIS_TYPE":0,"CLASSIFICATION_TYPE":"U","NORAD_CAT_ID":49098,"ELEMENT_SET_NO":999,"REV_AT_EPOCH":20483,"BSTAR":0.00034224792,"MEAN_MOTION_DOT":1.46e-6,"MEAN_MOTION_DDOT":0},{"OBJECT_NAME":"ONEWEB-0313","OBJECT_ID":"2021-075AA","EPOCH":"2025-11-10T08:15:03.553632","MEAN_MOTION":13.17650512,"ECCENTRICITY":0.0001609,"INCLINATION":87.9124,"RA_OF_ASC_NODE":49.4063,"ARG_OF_PERICENTER":99.4435,"MEAN_ANOMALY":260.6878,"EPHEMERIS_TYPE":0,"CLASSIFICATION_TYPE":"U","NORAD_CAT_ID":49099,"ELEMENT_SET_NO":999,"REV_AT_EPOCH":20477,"BSTAR":0.00013042145,"MEAN_MOTION_DOT":6.4e-7,"MEAN_MOTION_DDOT":0}]
