ONEWEB-0294             
1 49083U 21075J   25314.68124365  .00000430  00000+0  11611-2 0  9997
2 49083  87.8976  34.0626 0002042  89.6110 270.5253 13.12441819205910
ONEWEB-0295             
1 49084U 21075K   25314.71938987  .00000133  00000+0  31054-3 0  9999
2 49084  87.9128  49.3192 0001501  90.3229 269.8075 13.17649762204821
ONEWEB-0296             
1 49085U 21075L   25314.66178693  .00000188  00000+0  48664-3 0  9999
2 49085  87.8971  34.0713 0001658  83.7006 276.4312 13.12444346205914
ONEWEB-0297             
1 49086U 21075M   25314.46387966  .00000178  00000+0  45910-3 0  9993
2 49086  87.8964  34.1447 0001693 101.3688 258.7631 13.12440721206498
ONEWEB-0298             
1 49087U 21075N   25314.57186295  .00000074  00000+0  15778-3 0  9992
2 49087  87.9133  49.3451 0001669 103.9822 256.1495 13.17651718204833
ONEWEB-0299             
1 49088U 21075P   25314.49748441  .00000050  00000+0  94561-4 0  9993
2 49088  87.9140  49.3187 0001532 100.7808 259.3496 13.17650907204808
ONEWEB-0300             
1 49089U 21075Q   25314.22706435  .00000287  00000+0  76131-3 0  9996
2 49089  87.8976  34.1490 0001722 112.4536 247.6775 13.12440915206480
ONEWEB-0301             
1 49090U 21075R   25314.51578724  .00000441  00000+0  11914-2 0  9997
2 49090  87.8970  34.0945 0001827 114.8193 245.3126 13.12446221205885
ONEWEB-0302             
1 49091U 21075S   25314.50281166  .00000113  00000+0  27821-3 0  9999
2 49091  87.8969  34.1042 0001907  89.8104 270.3243 13.12444224205862
ONEWEB-0304             
1 49092U 21075T   25314.54810713  .00000101  00000+0  22572-3 0  9995
2 49092  87.9137  49.3393 0001599  98.0188 262.1125 13.17651203204789
ONEWEB-0305             
1 49093U 21075U   25314.69322044  .00000021  00000+0  21413-4 0  9992
2 49093  87.9137  49.2873 0001404  93.2489 266.8803 13.17651727204839
ONEWEB-0308             
1 49094U 21075V   25314.64879968 -.00000167  00000+0 -50060-3 0  9992
2 49094  87.8972  34.0683 0001790 101.6660 258.4669 13.12442923205895
ONEWEB-0309             
1 49095U 21075W   25314.54473773  .00000014  00000+0  40852-5 0  9995
2 49095  87.9134  49.3330 0001957  89.5258 270.6098 13.17650488204788
ONEWEB-0310             
1 49096U 21075X   25314.28221528  .00000331  00000+0  88364-3 0  9996
2 49096  87.8962  34.1809 0001931  99.0948 261.0400 13.12445183206472
ONEWEB-0311             
1 49097U 21075Y   25314.70334880  .00000112  00000+0  25564-3 0  9990
2 49097  87.9133  49.2979 0001349  99.9080 260.2203 13.17648479204858
ONEWEB-0312             
1 49098U 21075Z   25314.71853884  .00000146  00000+0  34225-3 0  9993
2 49098  87.9128  49.3233 0001590  90.4255 269.7058 13.17651313204836
ONEWEB-0313             
1 49099U 21075AA  25314.34379113  .00000064  00000+0  13042-3 0  9994
2 49099  87.9124  49.4063 0001609  99.4435 260.6878 13.17650512204778
